[{"OBJECT_NAME":"STARLINK-6363","OBJECT_ID":"2023-099AZ","EPOCH":"2026-03-09T12:32:04.413984","MEAN_MOTION":15.02525982,"ECCENTRICITY":0.00013565,"INCLINATION":43.0017,"RA_OF_ASC_NODE":236.6509,"ARG_OF_PERICENTER":270.2001,"MEAN_ANOMALY":89.8686,"EPHEMERIS_TYPE":0,"CLASSIFICATION_TYPE":"U","NORAD_CAT_ID":57375,"ELEMENT_SET_NO":999,"REV_AT_EPOCH":14624,"BSTAR":3.8508371e-5,"MEAN_MOTION_DOT":3.16e-6,"MEAN_MOTION_DDOT":0},{"OBJECT_NAME":"FENGYUN 1C DEB","OBJECT_ID":"1999-025DNE","EPOCH":"2026-03-03T04:32:20.578848","MEAN_MOTION":15.05751159,"ECCENTRICITY":0.01321557,"INCLINATION":98.9662,"RA_OF_ASC_NODE":53.9178,"ARG_OF_PERICENTER":282.0758,"MEAN_ANOMALY":76.5683,"EPHEMERIS_TYPE":0,"CLASSIFICATION_TYPE":"U","NORAD_CAT_ID":35174,"ELEMENT_SET_NO":999,"REV_AT_EPOCH":91373,"BSTAR":0.0030573957,"MEAN_MOTION_DOT":0.00054187,"MEAN_MOTION_DDOT":0}]
